[{"OBJECT_NAME":"STARLINK-5856","OBJECT_ID":"2023-037A","EPOCH":"2026-03-09T21:23:38.555808","MEAN_MOTION":14.98331752,"ECCENTRICITY":0.00025085,"INCLINATION":69.9994,"RA_OF_ASC_NODE":304.0996,"ARG_OF_PERICENTER":272.5008,"MEAN_ANOMALY":87.5864,"EPHEMERIS_TYPE":0,"CLASSIFICATION_TYPE":"U","NORAD_CAT_ID":55914,"ELEMENT_SET_NO":999,"REV_AT_EPOCH":16420,"BSTAR":-2.2290122e-5,"MEAN_MOTION_DOT":-3.59e-6,"MEAN_MOTION_DDOT":0},{"OBJECT_NAME":"DIAMANT DEB","OBJECT_ID":"1967-014C","EPOCH":"2026-03-07T10:00:52.471872","MEAN_MOTION":14.08335033,"ECCENTRICITY":0.04404535,"INCLINATION":39.955,"RA_OF_ASC_NODE":162.5873,"ARG_OF_PERICENTER":146.5113,"MEAN_ANOMALY":216.4329,"EPHEMERIS_TYPE":0,"CLASSIFICATION_TYPE":"U","NORAD_CAT_ID":2684,"ELEMENT_SET_NO":999,"REV_AT_EPOCH":92662,"BSTAR":0.001598728,"MEAN_MOTION_DOT":6.727e-5,"MEAN_MOTION_DDOT":0}]
